STARLINK-30954          
1 58407U 23180F   26068.01144882  .00001304  00000+0  58272-4 0  9993
2 58407  42.9992  56.2501 0000792 248.5691 111.5076 15.26752569127529
FLOCK 4G-26             
1 62633U 25009AA  26068.80489479  .00011283  00000+0  42469-3 0  9999
2 62633  97.4054 151.3913 0001988 299.1273  60.9767 15.27281631 63733
